[
    {
        "Altitude(m)": 624790.8095809413,
        "Argument of Periapsis(deg)": 0.0,
        "Eccentricity": 0.0,
        "Inclination(deg)": 60.0,
        "Latitude(deg)": -59.14715960753818,
        "Longitude(deg)": -163.96555437139966,
        "Mean Anomaly(deg)": 278.1818,
        "RAAN(deg)": 10.0,
        "Satellite Name": "Test1 61",
        "Satellite Number": 61,
        "Semi-Major Axis(m)": 6980739.136638005,
        "Time(s)": 0
    },
    {
        "Altitude(m)": 624737.4653098905,
        "Argument of Periapsis(deg)": 0.00010418945913296404,
        "Eccentricity": 0.0,
        "Inclination(deg)": 60.0,
        "Latitude(deg)": -58.99461662173181,
        "Longitude(deg)": -162.84604991389628,
        "Mean Anomaly(deg)": 278.8019061454618,
        "RAAN(deg)": 9.999579950860259,
        "Satellite Name": "Test1 61",
        "Satellite Number": 61,
        "Semi-Major Axis(m)": 6980739.136638005,
        "Time(s)": 10
    }
]